00932   10.05  0.15 K205V 331.43566   50.02546   14.95649    8.11373  0.0905936  0.26190177   2.4194153  0 E2020-QM5  2592  58 1909-2020 0.46 M-v 3Ek Pan        0000    (932) Hooveria           20200810
00933   12.45  0.15 K205V 207.31478   13.17952  141.42362    5.54265  0.1665585  0.27060153   2.3672777  0 E2020-QM5  2605  40 1927-2020 0.44 M-v 3Ek Pan        0000    (933) Susi               20200813
00934   10.10  0.15 K205V 273.96327   64.13301  325.39877   14.07576  0.2167953  0.21601398   2.7509423  0 E2020-QM5  2478  42 1920-2020 0.40 M-v 3Ek Pan        0000    (934) Thuringia          20200812
00935   12.83  0.15 K205V  15.87982   58.56201  346.38997    4.02248  0.1458921  0.29821930   2.2187697  0 E2020-QM5  2424  31 1920-2020 0.43 M-v 3Ek Pan        0000    (935) Clivia             20200203
00936   10.45  0.15 K205V   8.75419  253.48720   62.16121    2.36604  0.1762446  0.17779490   3.1322507  0 E2020-QM5  3419  59 1913-2020 0.45 M-v 3Ek Pan        0000    (936) Kunigunde          20200813
00937   11.80  0.15 K205V 350.04460   72.39655  243.56734    3.69628  0.2175972  0.29559375   2.2318888  0 E2020-QM5  3237  50 1916-2020 0.41 M-v 3Ek Pan        0000    (937) Bethgea            20200813
00938   11.40  0.15 K205V 265.87205  225.87459  119.06589    2.66977  0.1957032  0.17643716   3.1482993  0 E2020-QM5  3149  45 1920-2020 0.42 M-v 3Ek Pan        0000    (938) Chlosinde          20200813
00939   12.06  0.15 K205V 238.50704    6.27117  327.05433    2.58418  0.1769838  0.29271372   2.2465047  0 E2020-QM5  3845  43 1920-2020 0.39 M-v 3Ek Pan        0000    (939) Isberga            20200803
00940    9.32  0.15 K205V  41.35854  283.50527   66.31984    6.24275  0.1698783  0.15961949   3.3657261  0 E2020-QM5  2894  66 1920-2020 0.47 M-v 3Ek Pan        0000    (940) Kordula            20200810
00941   11.55  0.15 K205V 159.44029  334.93170   52.30867    6.62579  0.1965200  0.21233414   2.7826345  0 E2020-QM5  2798  35 1920-2020 0.41 M-v 3Ek Pan        0000    (941) Murray             20200808
00942   11.07  0.15 K205V 258.14406  319.36299   71.34207   10.56003  0.1685020  0.17500511   3.1654508  0 E2020-QM5  2500  40 1920-2020 0.43 M-v 3Ek Pan        0000    (942) Romilda            20200812
00943    9.82  0.15 K205V 310.57918    4.13139  113.76772   12.10832  0.2133332  0.17913980   3.1165541  0 E2020-QM5  2673  53 1920-2020 0.43 M-v 3Ek Pan        0000    (943) Begonia            20200810
00944   10.69  0.15 K205V  41.79991   56.62370   21.41634   42.52873  0.6605601  0.07174463   5.7360086  0 E2020-QM5  1822  28 1920-2020 0.40 M-v 3Ek Pan        0000    (944) Hidalgo            20200714
00945   10.09  0.15 K205V  78.02355  161.93246  318.28723   32.89222  0.1628965  0.23042727   2.6349971  0 E2020-QM5  2123  44 1921-2020 0.40 M-v 3Ek Pan        0000    (945) Barcelona          20200812
00946   10.63  0.15 K205V  30.11915   37.93556   69.66058    1.43119  0.1433275  0.17903112   3.1178151  0 E2020-QM5  3450  54 1911-2020 0.43 M-v 3Ek Pan        0000    (946) Poesia             20200614
00947    9.93  0.15 K205V   2.12464  339.18056   48.28191    6.69593  0.2468257  0.21575453   2.7531472  0 E2020-QM5  2981  64 1906-2020 0.47 M-v 3Ek Pan        0000    (947) Monterosa          20200810
00948   11.56  0.15 K205V 277.83523  163.28846  357.09872    8.65363  0.1634958  0.18669378   3.0319089  0 E2020-QM5  2603  33 1921-2020 0.45 M-v 3Ek Pan        0000    (948) Jucunda            20200810
00949    9.87  0.15 K205V 358.25620  249.54165  321.16743   10.70139  0.1922949  0.18940434   3.0029131  0 E2020-QM5  2958  58 1921-2020 0.43 M-v 3Ek Pan        0000    (949) Hel                20200814
00950   11.25  0.15 K205V  70.55008  348.37386  181.79070   23.47302  0.1579309  0.26974813   2.3722680  0 E2020-QM5  2999  42 1904-2020 0.36 M-v 3Ek Pan        0007    (950) Ahrensa            20200813
00951   11.51  0.15 K205V 172.93637  129.92059  253.05231    4.10699  0.1738499  0.30015141   2.2092378  0 E2020-QM5  3521  49 1913-2020 0.43 M-v 3Ek Pan        0000    (951) Gaspra             20200803
00952    9.40  0.15 K205V  28.04250  356.49472   18.41895    9.99060  0.2436254  0.19050025   2.9913852  0 E2020-QM5  2936  59 1908-2020 0.45 M-v 3Ek Pan        0000    (952) Caia               20200814
00953   10.10  0.15 K205V  43.83085  259.56891   36.40029    8.66175  0.1902147  0.21196648   2.7858512  0 E2020-QM5  4017  56 1913-2020 0.56 M-v 3Ek Pan        0000    (953) Painleva           20200813
00954   10.19  0.15 K205V 283.77518  151.37977  163.24300    1.16967  0.1735494  0.17812259   3.1284080  0 E2020-QM5  3635  64 1905-2020 0.45 M-v 3Ek Pan        0000    (954) Li                 20200813
00955   10.81  0.15 K205V 263.91343  282.61445  351.44473   10.68828  0.2876054  0.23561999   2.5961391  0 E2020-QM5  2953  48 1921-2020 0.43 M-v 3Ek Pan        0000    (955) Alstede            20200613
00956   12.11  0.15 K205V 136.20032  125.36386  192.63852    5.96259  0.2045944  0.28285546   2.2984038  0 E2020-QM5  3022  37 1921-2020 0.44 M-v 3Ek Pan        0000    (956) Elisa              20200502
00957    9.93  0.15 K205V 199.15665  224.57324  232.78328   14.76127  0.0805578  0.19712819   2.9239519  0 E2020-QM5  2904  50 1921-2020 0.44 M-v 3Ek Pan        0000    (957) Camelia            20200813
00958   10.40  0.15 K205V 152.90822   92.94996  343.11915    5.62880  0.1845756  0.12390379   3.9848593  0 E2020-QM5  2781  42 1921-2020 0.42 M-v 3Ek Pan        0008    (958) Asplinda           20200814
00959   10.79  0.15 K205V  86.93476  333.56749   58.52113    4.49672  0.2212014  0.17395027   3.1782348  0 E2020-QM5  3136  43 1916-2020 0.47 M-v 3Ek Pan        0000    (959) Arne               20200614
00960   12.54  0.15 K205V 123.62144   88.04050  249.15663    3.02599  0.1652574  0.29229498   2.2486497  0 E2020-QM5  2856  37 1921-2020 0.42 M-v 3Ek Pan        0000    (960) Birgit             20200503
00961   11.60  0.15 K205V 181.90721  285.27526   26.61592   10.99142  0.0910595  0.22292852   2.6937604  0 E2020-QM5  2755  40 1921-2020 0.42 M-v 3Ek Pan        0000    (961) Gunnie             20200601
00962   11.37  0.15 K205V 346.17564  224.12121  145.44821    2.60468  0.0966146  0.19902636   2.9053312  0 E2020-QM5  2943  48 1916-2020 0.48 M-v 3Ek Pan        0000    (962) Aslog              20200813
00963   12.28  0.15 K205V  66.59800    5.54931   62.46759    7.98367  0.1381223  0.29251672   2.2475132  0 E2020-QM5  2556  38 1911-2020 0.40 M-v 3Ek Pan        0000    (963) Iduberga           20200622
00964   10.80  0.15 K205V 169.17283    9.63496   30.68146    9.05059  0.1201918  0.18522455   3.0479208  0 E2020-QM5  2893  39 1905-2020 0.43 M-v 3Ek Pan        0000    (964) Subamara           20200813
00965   10.27  0.15 K205V 162.59494   47.01977   41.43206   21.42803  0.2809435  0.17567737   3.1573702  0 E2020-QM5  2329  39 1921-2020 0.38 M-v 3Ek Pan        0000    (965) Angelica           20200814
00966    9.96  0.15 K205V 163.97521  177.96719   72.41501   14.41506  0.1310186  0.21991823   2.7182865  0 E2020-QM5  2702  56 1921-2020 0.43 M-v 3Ek Pan        0000    (966) Muschi             20200810
00967   11.86  0.15 K205V 334.55774  231.85451   82.35256    5.41273  0.1687133  0.29678935   2.2258907  0 E2020-QM5  3310  42 1921-2020 0.40 M-v 3Ek Pan        0000    (967) Helionape          20200812
00968   10.23  0.15 K205V  15.80277  297.53544  208.84287   11.59753  0.1366296  0.20317433   2.8656523  0 E2020-QM5  3233  52 1921-2020 0.40 M-v 3Ek Pan        0000    (968) Petunia            20200731
00969   12.78  0.15 K205V 199.53433   91.33199  287.75935    2.29275  0.2063166  0.25521164   2.4615145  0 E2020-QM5  2764  39 1921-2020 0.43 M-v 3Ek Pan        0000    (969) Leocadia           20200813
00970   12.35  0.15 K205V  17.50148   95.56430  310.77359    5.03309  0.2716555  0.24065312   2.5598139  0 E2020-QM5  2425  40 1921-2020 0.46 M-v 3Ek Pan        0000    (970) Primula            20200210
00971   10.14  0.15 K205V 315.88537    6.57234   83.49480   13.79240  0.1625857  0.22979528   2.6398261  0 E2020-QM5  2499  51 1908-2020 0.45 M-v 3Ek Pan        0000    (971) Alsatia            20200810
00972    9.64  0.15 K205V 192.68124   93.59481  281.52385    8.37218  0.2354521  0.18456024   3.0552303  0 E2020-QM5  3212  54 1906-2020 0.40 M-v 3Ek Pan        0000    (972) Cohnia             20200809
00973   10.12  0.15 K205V  63.63287   87.85633  348.43882   15.82834  0.1120011  0.17122042   3.2119271  0 E2020-QM5  2791  53 1922-2020 0.44 M-v 3Ek Pan        0000    (973) Aralia             20200622
00974   10.46  0.15 K205V 248.30203  301.86220   86.67800    5.45634  0.1108537  0.24425939   2.5345559  0 E2020-QM5  2799  61 1906-2020 0.47 M-v 3Ek Pan        0000    (974) Lioba              20200812
00975   10.51  0.15 K205V 291.86572   59.25076   38.67806    2.55560  0.0331403  0.20671408   2.8328441  0 E2020-QM5  3393  68 1912-2020 0.45 M-v 3Ek Pan        0000    (975) Perseverantia      20200810
00976    9.39  0.15 K205V  43.75694  319.60213  243.76049    7.71210  0.1020305  0.17210132   3.2009575  0 E2020-QM5  2888  60 1922-2020 0.46 M-v 3Ek Pan        0000    (976) Benjamina          20200814
00977    9.94  0.15 K205V 355.29326   72.69367   75.73864   15.17383  0.0260441  0.17903412   3.1177803  0 E2020-QM5  2830  53 1914-2020 0.40 M-v 3Ek Pan        0000    (977) Philippa           20200619
00978    9.64  0.15 K205V 326.41853  132.44796  216.56696   21.60574  0.2321042  0.17181498   3.2045130  0 E2020-QM5  2962  48 1906-2020 0.40 M-v 3Ek Pan        0000    (978) Aidamina           20200813
00979    9.77  0.15 K205V 123.47478  115.40478  230.61585   10.11009  0.1378960  0.17558042   3.1585324  0 E2020-QM5  2784  55 1916-2020 0.43 M-v 3Ek Pan        0000    (979) Ilsewa             20200518
00980    7.93  0.15 K205V 262.13627   69.88477  285.81091   15.90836  0.2031920  0.21739852   2.7392500  0 E2020-QM5  2329  57 1917-2020 0.42 M-v 3Ek Pan        0000    (980) Anacostia          20200814
